{"type": "FeatureCollection", "features": [ {"type": "Feature", "properties": {"norad_id": 66396, "name": "STARLINK-35669", "group": "last-30-days", "lat": 47.65441232673281, "lon": 47.7959950428004, "alt_km": 440.10225872665706, "timestamp": "2025-12-08T17:43:03.630707+00:00", "meta": {"OBJECT_NAME": "STARLINK-35669", "OBJECT_ID": "2025-257S", "EPOCH": "2025-12-08T06:00:02.999808", "MEAN_MOTION": 15.39562132, "ECCENTRICITY": 0.00010468, "INCLINATION": 53.1594, "RA_OF_ASC_NODE": 285.4459, "ARG_OF_PERICENTER": 93.1346, "MEAN_ANOMALY": 191.9276, "EPHEMERIS_TYPE": 0, "CLASSIFICATION_TYPE": "U", "NORAD_CAT_ID": 66396, "ELEMENT_SET_NO": 999, "REV_AT_EPOCH": 577, "BSTAR": 0.0020667204, "MEAN_MOTION_DOT": 0.00083014, "MEAN_MOTION_DDOT": 0}, "tle": {"line1": "1 66396U 25257S   25342.25003472  .00083014  00000+0  20667-2 0  9998", "line2": "2 66396  53.1594 285.4459 0001046  93.1346 191.9276 15.39562132  5774"}}, "geometry": {"type": "Point", "coordinates": [47.7959950428004, 47.65441232673281]}}, {"type": "Feature", "properties": {"norad_id": 66397, "name": "STARLINK-35510", "group": "last-30-days", "lat": 33.43177252848613, "lon": 73.43146174284622, "alt_km": 442.5502398449171, "timestamp": "2025-12-08T17:43:03.630718+00:00", "meta": {"OBJECT_NAME": "STARLINK-35510", "OBJECT_ID": "2025-257T", "EPOCH": "2025-12-08T06:00:02.999808", "MEAN_MOTION": 15.39556189, "ECCENTRICITY": 0.00012412, "INCLINATION": 53.1598, "RA_OF_ASC_NODE": 285.3987, "ARG_OF_PERICENTER": 75.0881, "MEAN_ANOMALY": 233.9012, "EPHEMERIS_TYPE": 0, "CLASSIFICATION_TYPE": "U", "NORAD_CAT_ID": 66397, "ELEMENT_SET_NO": 999, "REV_AT_EPOCH": 577, "BSTAR": 0.0021839096, "MEAN_MOTION_DOT": 0.00087782, "MEAN_MOTION_DDOT": 0}, "tle": {"line1": "1 66397U 25257T   25342.25003472  .00087782  00000+0  21839-2 0  9997", "line2": "2 66397  53.1598 285.3987 0001241  75.0881 233.9012 15.39556189  5774"}}, "geometry": {"type": "Point", "coordinates": [73.43146174284622, 33.43177252848613]}}, {"type": "Feature", "properties": {"norad_id": 66398, "name": "STARLINK-35642", "group": "last-30-days", "lat": 14.163712865207229, "lon": 92.13959788886713, "alt_km": 446.0056378116924, "timestamp": "2025-12-08T17:43:03.630734+00:00", "meta": {"OBJECT_NAME": "STARLINK-35642", "OBJECT_ID": "2025-257U", "EPOCH": "2025-12-08T06:00:02.999808", "MEAN_MOTION": 15.39540882, "ECCENTRICITY": 0.00016158, "INCLINATION": 53.1597, "RA_OF_ASC_NODE": 285.3469, "ARG_OF_PERICENTER": 73.3132, "MEAN_ANOMALY": 261.3716, "EPHEMERIS_TYPE": 0, "CLASSIFICATION_TYPE": "U", "NORAD_CAT_ID": 66398, "ELEMENT_SET_NO": 999, "REV_AT_EPOCH": 577, "BSTAR": 0.0025106442, "MEAN_MOTION_DOT": 0.00101102, "MEAN_MOTION_DDOT": 0}, "tle": {"line1": "1 66398U 25257U   25342.25003472  .00101102  00000+0  25106-2 0  9992", "line2": "2 66398  53.1597 285.3469 0001615  73.3132 261.3716 15.39540882  5773"}}, "geometry": {"type": "Point", "coordinates": [92.13959788886713, 14.163712865207229]}}, {"type": "Feature", "properties": {"norad_id": 66399, "name": "STARLINK-35657", "group": "last-30-days", "lat": 32.151704233489845, "lon": 74.97829814028277, "alt_km": 442.3690969442505, "timestamp": "2025-12-08T17:43:03.630746+00:00", "meta": {"OBJECT_NAME": "STARLINK-35657", "OBJECT_ID": "2025-257V", "EPOCH": "2025-12-08T06:00:02.999808", "MEAN_MOTION": 15.39560012, "ECCENTRICITY": 0.00013735, "INCLINATION": 53.1597, "RA_OF_ASC_NODE": 285.3944, "ARG_OF_PERICENTER": 106.8457, "MEAN_ANOMALY": 203.9701, "EPHEMERIS_TYPE": 0, "CLASSIFICATION_TYPE": "U", "NORAD_CAT_ID": 66399, "ELEMENT_SET_NO": 999, "REV_AT_EPOCH": 577, "BSTAR": 0.0020744802, "MEAN_MOTION_DOT": 0.00083325, "MEAN_MOTION_DDOT": 0}, "tle": {"line1": "1 66399U 25257V   25342.25003472  .00083325  00000+0  20745-2 0  9993", "line2": "2 66399  53.1597 285.3944 0001373 106.8457 203.9701 15.39560012  5778"}}, "geometry": {"type": "Point", "coordinates": [74.97829814028277, 32.151704233489845]}}, {"type": "Feature", "properties": {"norad_id": 66400, "name": "STARLINK-35667", "group": "last-30-days", "lat": -6.376565290900593, "lon": 107.79997159024276, "alt_km": 450.82004585315553, "timestamp": "2025-12-08T17:43:03.630758+00:00", "meta": {"OBJECT_NAME": "STARLINK-35667", "OBJECT_ID": "2025-257W", "EPOCH": "2025-12-08T06:00:02.999808", "MEAN_MOTION": 15.41464165, "ECCENTRICITY": 9.776e-05, "INCLINATION": 53.1599, "RA_OF_ASC_NODE": 285.297, "ARG_OF_PERICENTER": 81.2106, "MEAN_ANOMALY": 278.088, "EPHEMERIS_TYPE": 0, "CLASSIFICATION_TYPE": "U", "NORAD_CAT_ID": 66400, "ELEMENT_SET_NO": 999, "REV_AT_EPOCH": 577, "BSTAR": -0.059896703, "MEAN_MOTION_DOT": -0.02277867, "MEAN_MOTION_DDOT": 0}, "tle": {"line1": "1 66400U 25257W   25342.25003472 -.02277867  00000+0 -59897-1 0  9995", "line2": "2 66400  53.1599 285.2970 0000977  81.2106 278.0880 15.41464165  5773"}}, "geometry": {"type": "Point", "coordinates": [107.79997159024276, -6.376565290900593]}}, {"type": "Feature", "properties": {"norad_id": 66401, "name": "STARLINK-35668", "group": "last-30-days", "lat": -7.839281567866165, "lon": 108.91494110846062, "alt_km": 450.8722968230122, "timestamp": "2025-12-08T17:43:03.630770+00:00", "meta": {"OBJECT_NAME": "STARLINK-35668", "OBJECT_ID": "2025-257X", "EPOCH": "2025-12-08T06:00:02.999808", "MEAN_MOTION": 15.414455, "ECCENTRICITY": 0.00010976, "INCLINATION": 53.16, "RA_OF_ASC_NODE": 285.2933, "ARG_OF_PERICENTER": 83.4453, "MEAN_ANOMALY": 277.7019, "EPHEMERIS_TYPE": 0, "CLASSIFICATION_TYPE": "U", "NORAD_CAT_ID": 66401, "ELEMENT_SET_NO": 999, "REV_AT_EPOCH": 577, "BSTAR": -0.059389507, "MEAN_MOTION_DOT": -0.02259384, "MEAN_MOTION_DDOT": 0}, "tle": {"line1": "1 66401U 25257X   25342.25003472 -.02259384  00000+0 -59390-1 0  9998", "line2": "2 66401  53.1600 285.2933 0001097  83.4453 277.7019 15.41445500  5771"}}, "geometry": {"type": "Point", "coordinates": [108.91494110846062, -7.839281567866165]}}, {"type": "Feature", "properties": {"norad_id": 66402, "name": "STARLINK-35644", "group": "last-30-days", "lat": 12.664387982223252, "lon": 93.34305357191342, "alt_km": 445.9862326744851, "timestamp": "2025-12-08T17:43:03.630781+00:00", "meta": {"OBJECT_NAME": "STARLINK-35644", "OBJECT_ID": "2025-257Y", "EPOCH": "2025-12-08T06:00:02.999808", "MEAN_MOTION": 15.39560335, "ECCENTRICITY": 0.00013944, "INCLINATION": 53.1597, "RA_OF_ASC_NODE": 285.3428, "ARG_OF_PERICENTER": 90.9401, "MEAN_ANOMALY": 245.635, "EPHEMERIS_TYPE": 0, "CLASSIFICATION_TYPE": "U", "NORAD_CAT_ID": 66402, "ELEMENT_SET_NO": 999, "REV_AT_EPOCH": 577, "BSTAR": 0.0019906414, "MEAN_MOTION_DOT": 0.00079906, "MEAN_MOTION_DDOT": 0}, "tle": {"line1": "1 66402U 25257Y   25342.25003472  .00079906  00000+0  19906-2 0  9995", "line2": "2 66402  53.1597 285.3428 0001394  90.9401 245.6350 15.39560335  5776"}}, "geometry": {"type": "Point", "coordinates": [93.34305357191342, 12.664387982223252]}}, {"type": "Feature", "properties": {"norad_id": 66403, "name": "STARLINK-35602", "group": "last-30-days", "lat": -24.796107460977368, "lon": 123.21193275833932, "alt_km": 444.0688696226116, "timestamp": "2025-12-08T17:43:03.630792+00:00", "meta": {"OBJECT_NAME": "STARLINK-35602", "OBJECT_ID": "2025-257Z", "EPOCH": "2025-12-08T06:00:02.999808", "MEAN_MOTION": 15.4416858, "ECCENTRICITY": 7.575e-05, "INCLINATION": 53.1592, "RA_OF_ASC_NODE": 285.2597, "ARG_OF_PERICENTER": 97.7131, "MEAN_ANOMALY": 280.2938, "EPHEMERIS_TYPE": 0, "CLASSIFICATION_TYPE": "U", "NORAD_CAT_ID": 66403, "ELEMENT_SET_NO": 999, "REV_AT_EPOCH": 577, "BSTAR": -0.049966119, "MEAN_MOTION_DOT": -0.02066287, "MEAN_MOTION_DDOT": 0}, "tle": {"line1": "1 66403U 25257Z   25342.25003472 -.02066287  00000+0 -49966-1 0  9996", "line2": "2 66403  53.1592 285.2597 0000757  97.7131 280.2938 15.44168580  5774"}}, "geometry": {"type": "Point", "coordinates": [123.21193275833932, -24.796107460977368]}}, {"type": "Feature", "properties": {"norad_id": 66404, "name": "STARLINK-35691", "group": "last-30-days", "lat": -26.185133147993735, "lon": 124.57617226580143, "alt_km": 444.2065097461591, "timestamp": "2025-12-08T17:43:03.630803+00:00", "meta": {"OBJECT_NAME": "STARLINK-35691", "OBJECT_ID": "2025-257AA", "EPOCH": "2025-12-08T06:00:02.999808", "MEAN_MOTION": 15.44130881, "ECCENTRICITY": 0.000101, "INCLINATION": 53.1595, "RA_OF_ASC_NODE": 285.2554, "ARG_OF_PERICENTER": 83.8736, "MEAN_ANOMALY": 296.0051, "EPHEMERIS_TYPE": 0, "CLASSIFICATION_TYPE": "U", "NORAD_CAT_ID": 66404, "ELEMENT_SET_NO": 999, "REV_AT_EPOCH": 577, "BSTAR": -0.048640011, "MEAN_MOTION_DOT": -0.02015253, "MEAN_MOTION_DDOT": 0}, "tle": {"line1": "1 66404U 25257AA  25342.25003472 -.02015253  00000+0 -48640-1 0  9992", "line2": "2 66404  53.1595 285.2554 0001010  83.8736 296.0051 15.44130881  5775"}}, "geometry": {"type": "Point", "coordinates": [124.57617226580143, -26.185133147993735]}}, {"type": "Feature", "properties": {"norad_id": 66405, "name": "STARLINK-35683", "group": "last-30-days", "lat": -39.039601142153586, "lon": 140.34706712033787, "alt_km": 430.1318460847451, "timestamp": "2025-12-08T17:43:03.630814+00:00", "meta": {"OBJECT_NAME": "STARLINK-35683", "OBJECT_ID": "2025-257AB", "EPOCH": "2025-12-08T05:52:12.086112", "MEAN_MOTION": 15.47713932, "ECCENTRICITY": 0.00018294, "INCLINATION": 53.1583, "RA_OF_ASC_NODE": 285.2563, "ARG_OF_PERICENTER": 57.5088, "MEAN_ANOMALY": 302.6097, "EPHEMERIS_TYPE": 0, "CLASSIFICATION_TYPE": "U", "NORAD_CAT_ID": 66405, "ELEMENT_SET_NO": 999, "REV_AT_EPOCH": 561, "BSTAR": -0.007380379, "MEAN_MOTION_DOT": -0.00370742, "MEAN_MOTION_DDOT": 0}, "tle": {"line1": "1 66405U 25257AB  25342.24458433 -.00370742  00000+0 -73804-2 0  9999", "line2": "2 66405  53.1583 285.2563 0001829  57.5088 302.6097 15.47713932  5613"}}, "geometry": {"type": "Point", "coordinates": [140.34706712033787, -39.039601142153586]}}]}